ONEWEB-0207             
1 48242U 21031AJ  25178.24096203 -.00000050  00000+0 -17032-3 0  9998
2 48242  87.9030   0.3047 0001678  84.8582 275.2739 13.14503643201660
ONEWEB-0208             
1 48243U 21031AK  25178.45108575 -.00000196  00000+0 -56354-3 0  9999
2 48243  87.9032   0.2774 0002016  87.1225 273.0136 13.14502323201702
ONEWEB-0200             
1 48244U 21031AL  25178.26238161  .00000282  00000+0  72669-3 0  9995
2 48244  87.9030   0.3070 0001912  87.7903 272.3446 13.14503300201605
ONEWEB-0217             
1 48245U 21031AM  25178.20211423  .00000121  00000+0  29112-3 0  9999
2 48245  87.9033   0.3036 0002114  87.3118 272.8254 13.14502082201552
ONEWEB-0211             
1 48767U 21045A   25178.38940874  .00000002  00000+0 -28719-4 0  9993
2 48767  87.9056 329.8769 0002174  99.9444 260.1932 13.16081150197776
ONEWEB-0223             
1 48768U 21045B   25178.84217123 -.00000235  00000+0 -65848-3 0  9991
2 48768  87.9060 329.8280 0002203 101.9172 258.2206 13.15548510198955
ONEWEB-0230             
1 48769U 21045C   25178.88969957  .00000015  00000+0  49277-5 0  9999
2 48769  87.9042 329.8611 0001761  99.6528 260.4801 13.15549134199196
ONEWEB-0237             
1 48770U 21045D   25178.34622439  .00000103  00000+0  23964-3 0  9994
2 48770  87.9064 329.9475 0002115 102.1832 257.9535 13.15548940197730
